OBJECT_NAME,OBJECT_ID,EPOCH,MEAN_MOTION,ECCENTRICITY,INCLINATION,RA_OF_ASC_NODE,ARG_OF_PERICENTER,MEAN_ANOMALY,EPHEMERIS_TYPE,CLASSIFICATION_TYPE,NORAD_CAT_ID,ELEMENT_SET_NO,REV_AT_EPOCH,BSTAR,MEAN_MOTION_DOT,MEAN_MOTION_DDOT
INTELSAT 23 (IS-23),2012-057A,2026-07-18T19:15:38.598048,1.00277457,.00002811,0.0118,352.1056,137.1444,43.2224,0,U,38867,999,5027,0,-.291E-5,0
FM-6,2013-058A,2026-07-18T14:07:38.839008,1.00278676,.00014958,0.0130,35.9612,147.9640,208.0270,0,U,39360,999,4638,0,-.24E-6,0
INTELSAT 30 (IS-30),2014-062A,2026-07-18T13:53:31.719840,1.00275364,.0001489,0.0172,54.2083,340.9469,14.5587,0,U,40271,999,710,0,-.158E-5,0
DIRECTV 14,2014-078B,2026-07-18T13:59:38.658048,1.00270331,.00003085,0.0124,49.6835,326.6774,30.6839,0,U,40333,999,4235,0,-.132E-5,0
DIRECTV 15,2015-026A,2026-07-18T13:59:38.658048,1.00269297,.00003501,0.0216,78.3790,301.7795,23.2456,0,U,40663,999,4077,0,-.109E-5,0
SKY MEXICO-1,2015-026B,2026-07-18T17:24:04.998240,1.00272749,.00023886,0.0169,71.8608,60.5114,346.3730,0,U,40664,999,4077,0,-.241E-5,0
INTELSAT 34 (IS-34),2015-039A,2026-07-18T19:15:38.598048,1.00272182,.00005441,0.0097,16.3960,357.3219,156.2971,0,U,40874,999,3995,0,-.292E-5,0
INTELSAT 31 (IS-31),2016-035A,2026-07-18T13:53:31.719840,1.00274971,.0000896,0.0431,237.0046,54.9630,117.7441,0,U,41581,999,3699,0,-.158E-5,0
INTELSAT 36 (IS-36),2016-053A,2026-07-18T04:13:38.521056,1.00272889,.00023607,0.0101,31.5291,315.0581,81.2885,0,U,41747,999,3626,0,-.33E-6,0
INTELSAT 32E (IS-32E),2017-007B,2026-07-18T19:07:38.635680,1.00270367,.00005604,0.0187,54.3733,331.4468,154.5136,0,U,41945,999,3454,0,0,0
INTELSAT 35E (IS-35E),2017-041A,2026-07-18T18:11:37.298112,1.00272651,.00019466,0.0167,64.6546,53.5774,56.7266,0,U,42818,999,3313,0,-.245E-5,0
INTELSAT 37E (IS-37E),2017-059A,2026-07-18T18:17:38.632416,1.00272915,.00026649,0.0161,80.1668,39.9691,72.8257,0,U,42950,999,3238,0,-.147E-5,0
AZERSPACE 2 (IS-38),2018-074A,2026-07-18T22:31:27.009984,1.00270128,.00014717,0.0176,47.7897,61.2876,210.6428,0,U,43632,999,2876,0,0,0
HORIZONS-3E,2018-074B,2026-07-18T17:27:04.070016,1.00271494,.00006993,0.0390,251.1956,36.2086,79.8718,0,U,43633,999,2865,0,-.37E-6,0
AT&T T-16,2019-034A,2026-07-18T13:59:38.658048,1.00268577,.00010023,0.0125,72.6319,281.2295,51.5735,0,U,44333,999,2594,0,-.122E-5,0
INTELSAT 39 (IS-39),2019-049B,2026-07-18T23:26:54.336192,1.00269702,.00009249,0.0172,48.0745,310.2157,352.1657,0,U,44476,999,2544,0,0,0
GALAXY 30 (G-30),2020-056C,2026-07-18T14:15:38.763360,1.00272702,.00022223,0.0188,55.7560,63.4658,266.0802,0,U,46114,999,2160,0,.3E-6,0
GALAXY 33 (G-33),2022-128A,2026-07-18T17:43:32.491200,1.00270285,.00018906,0.0185,65.6459,48.1004,315.6536,0,U,54026,999,1405,0,.73E-6,0
GALAXY 34 (G-34),2022-128B,2026-07-18T14:15:38.763360,1.00274611,.00016935,0.0115,73.7877,44.5599,262.9468,0,U,54027,999,1422,0,.52E-6,0
GALAXY 31 (G-31),2022-153A,2026-07-18T14:07:38.839008,1.00272302,.00011295,0.0206,94.6525,24.7798,267.8499,0,U,54243,999,744,0,.6E-7,0
GALAXY 32 (G-32),2022-153B,2026-07-18T13:51:38.716416,1.00272389,.00013906,0.0135,54.9552,353.3136,5.0201,0,U,54244,999,1345,0,-.181E-5,0
GALAXY 35 (G-35),2022-170A,2026-07-18T13:51:38.716416,1.00272219,.00019073,0.0155,93.0372,23.3164,294.8224,0,U,54741,999,1320,0,-.169E-5,0
GALAXY 36 (G-36),2022-170B,2026-07-18T13:51:38.716416,1.00271822,.00026577,0.0183,141.4952,316.9631,316.8281,0,U,54742,999,1308,0,-.192E-5,0
GALAXY 37 (G-37),2023-112A,2026-07-18T14:15:38.763360,1.00271956,.0002083,0.0164,59.8517,55.7407,267.7010,0,U,57493,999,1085,0,.41E-6,0
